OBJECT B                
1 51825U 22019B   24344.79947903  .00025657  00000+0  87081-3 0  9991
2 51825  97.4105  54.7404 0011650 345.0478  15.0417 15.30428472154001
